start=new Date('2023-04-30T00:00:00.000Z').valueOf();
sats=[{"MEAN_ELEMENT_THEORY":"SGP4","TLE_LINE2":"2 52343  53.2144 220.4441 0001099 109.1523 250.9588 15.08838172 57883","TIME_SYSTEM":"UTC","OBJECT_NAME":"STARLINK-3849","APOAPSIS":"540.511","LAUNCH_DATE":"2022-04-29","CENTER_NAME":"EARTH","PERIAPSIS":"538.991","SITE":"AFETR","PERIOD":"95.438","ECCENTRICITY":"0.00010990","COUNTRY_CODE":"US","ELEMENT_SET_NO":"999","DECAY_DATE":null,"EPOCH":"2023-04-29T15:48:46.990080","TLE_LINE1":"1 52343U 22045N   23119.65887720  .00002566  00000-0  17927-3 0  9997","RCS_SIZE":"LARGE","BSTAR":"0.00017927000000","EPHEMERIS_TYPE":"0","OBJECT_ID":"2022-045N","ARG_OF_PERICENTER":"109.1523","NORAD_CAT_ID":"52343","INCLINATION":"53.2144","MEAN_MOTION_DDOT":"0.0000000000000","REV_AT_EPOCH":"5788","RA_OF_ASC_NODE":"220.4441","MEAN_MOTION":"15.08838172","MEAN_ANOMALY":"250.9588","CLASSIFICATION_TYPE":"U","GP_ID":"230939289","SEMIMAJOR_AXIS":"6917.886","OBJECT_TYPE":"PAYLOAD","FILE":"3896764","REF_FRAME":"TEME","MEAN_MOTION_DOT":"0.00002566"},{"COUNTRY_CODE":"US","ELEMENT_SET_NO":"999","DECAY_DATE":null,"EPOCH":"2023-04-29T15:28:54.936192","TIME_SYSTEM":"UTC","TLE_LINE2":"2 52344  53.2157 210.5771 0001063  75.9120 284.1991 15.08851413 58014","APOAPSIS":"540.446","OBJECT_NAME":"STARLINK-3851","MEAN_ELEMENT_THEORY":"SGP4","CENTER_NAME":"EARTH","LAUNCH_DATE":"2022-04-29","PERIAPSIS":"538.975","PERIOD":"95.437","ECCENTRICITY":"0.00010630","SITE":"AFETR","NORAD_CAT_ID":"52344","INCLINATION":"53.2157","MEAN_MOTION":"15.08851413","RA_OF_ASC_NODE":"210.5771","MEAN_MOTION_DDOT":"0.0000000000000","REV_AT_EPOCH":"5801","MEAN_ANOMALY":"284.1991","CLASSIFICATION_TYPE":"U","OBJECT_TYPE":"PAYLOAD","FILE":"3896774","REF_FRAME":"TEME","MEAN_MOTION_DOT":"0.00002133","GP_ID":"230939739","SEMIMAJOR_AXIS":"6917.846","TLE_LINE1":"1 52344U 22045P   23119.64508028  .00002133  00000-0  15201-3 0  9991","RCS_SIZE":"LARGE","BSTAR":"0.00015201000000","EPHEMERIS_TYPE":"0","OBJECT_ID":"2022-045P","ARG_OF_PERICENTER":"75.9120"},{"DECAY_DATE":null,"EPOCH":"2023-04-29T15:44:48.312672","COUNTRY_CODE":"US","ELEMENT_SET_NO":"999","PERIAPSIS":"539.031","SITE":"AFETR","PERIOD":"95.437","ECCENTRICITY":"0.00010230","MEAN_ELEMENT_THEORY":"SGP4","TLE_LINE2":"2 52345  53.2154 210.4569 0001023  98.5566 261.5542 15.08842149 58003","TIME_SYSTEM":"UTC","OBJECT_NAME":"STARLINK-3852","APOAPSIS":"540.447","LAUNCH_DATE":"2022-04-29","CENTER_NAME":"EARTH","MEAN_ANOMALY":"261.5542","CLASSIFICATION_TYPE":"U","GP_ID":"230938782","SEMIMAJOR_AXIS":"6917.874","FILE":"3896764","OBJECT_TYPE":"PAYLOAD","REF_FRAME":"TEME","MEAN_MOTION_DOT":"-0.00000347","NORAD_CAT_ID":"52345","INCLINATION":"53.2154","MEAN_MOTION_DDOT":"0.0000000000000","REV_AT_EPOCH":"5800","MEAN_MOTION":"15.08842149","RA_OF_ASC_NODE":"210.4569","OBJECT_ID":"2022-045Q","EPHEMERIS_TYPE":"0","ARG_OF_PERICENTER":"98.5566","TLE_LINE1":"1 52345U 22045Q   23119.65611473 -.00000347  00000-0 -37095-5 0  9996","RCS_SIZE":"LARGE","BSTAR":"-0.00000370950000"},{"COUNTRY_CODE":"US","ELEMENT_SET_NO":"999","DECAY_DATE":null,"EPOCH":"2023-04-29T18:30:28.075392","OBJECT_NAME":"STARLINK-3812","APOAPSIS":"540.754","TLE_LINE2":"2 52346  53.2141 209.9522 0001461  73.7947 286.3205 15.08840521 58032","TIME_SYSTEM":"UTC","MEAN_ELEMENT_THEORY":"SGP4","CENTER_NAME":"EARTH","LAUNCH_DATE":"2022-04-29","PERIAPSIS":"538.733","ECCENTRICITY":"0.00014610","PERIOD":"95.438","SITE":"AFETR","INCLINATION":"53.2141","NORAD_CAT_ID":"52346","RA_OF_ASC_NODE":"209.9522","MEAN_MOTION":"15.08840521","REV_AT_EPOCH":"5803","MEAN_MOTION_DDOT":"0.0000000000000","CLASSIFICATION_TYPE":"U","MEAN_ANOMALY":"286.3205","REF_FRAME":"TEME","MEAN_MOTION_DOT":"0.00022398","OBJECT_TYPE":"PAYLOAD","FILE":"3896764","SEMIMAJOR_AXIS":"6917.879","GP_ID":"230939291","TLE_LINE1":"1 52346U 22045R   23119.77115828  .00022398  00000-0  14209-2 0  9990","BSTAR":"0.00142090000000","RCS_SIZE":"LARGE","EPHEMERIS_TYPE":"0","OBJECT_ID":"2022-045R","ARG_OF_PERICENTER":"73.7947"},{"COUNTRY_CODE":"US","ELEMENT_SET_NO":"999","DECAY_DATE":null,"EPOCH":"2023-04-29T15:35:35.218752","MEAN_ELEMENT_THEORY":"SGP4","TLE_LINE2":"2 52347  53.2145 210.4945 0001506  56.9736 303.1401 15.08845431 58011","TIME_SYSTEM":"UTC","APOAPSIS":"540.771","OBJECT_NAME":"STARLINK-3826","LAUNCH_DATE":"2022-04-29","CENTER_NAME":"EARTH","PERIAPSIS":"538.687","SITE":"AFETR","PERIOD":"95.437","ECCENTRICITY":"0.00015060","NORAD_CAT_ID":"52347","INCLINATION":"53.2145","MEAN_MOTION_DDOT":"0.0000000000000","REV_AT_EPOCH":"5801","MEAN_MOTION":"15.08845431","RA_OF_ASC_NODE":"210.4945","MEAN_ANOMALY":"303.1401","CLASSIFICATION_TYPE":"U","GP_ID":"230939280","SEMIMAJOR_AXIS":"6917.864","FILE":"3896764","OBJECT_TYPE":"PAYLOAD","MEAN_MOTION_DOT":"0.00024236","REF_FRAME":"TEME","TLE_LINE1":"1 52347U 22045S   23119.64971318  .00024236  00000-0  15354-2 0  9996","RCS_SIZE":"LARGE","BSTAR":"0.00153540000000","EPHEMERIS_TYPE":"0","OBJECT_ID":"2022-045S","ARG_OF_PERICENTER":"56.9736"},{"RCS_SIZE":"LARGE","BSTAR":"0.00010965000000","TLE_LINE1":"1 52348U 22045T   23119.56411101  .00001458  00000-0  10965-3 0  9992","ARG_OF_PERICENTER":"95.0652","OBJECT_ID":"2022-045T","EPHEMERIS_TYPE":"0","MEAN_MOTION":"15.08849827","RA_OF_ASC_NODE":"210.8739","MEAN_MOTION_DDOT":"0.0000000000000","REV_AT_EPOCH":"5800","NORAD_CAT_ID":"52348","INCLINATION":"53.2163","OBJECT_TYPE":"PAYLOAD","FILE":"3896517","REF_FRAME":"TEME","MEAN_MOTION_DOT":"0.00001458","GP_ID":"230930770","SEMIMAJOR_AXIS":"6917.850","MEAN_ANOMALY":"265.0469","CLASSIFICATION_TYPE":"U","CENTER_NAME":"EARTH","LAUNCH_DATE":"2022-04-29","TLE_LINE2":"2 52348  53.2163 210.8739 0001125  95.0652 265.0469 15.08849827 58007","TIME_SYSTEM":"UTC","APOAPSIS":"540.494","OBJECT_NAME":"STARLINK-3829","MEAN_ELEMENT_THEORY":"SGP4","PERIOD":"95.437","ECCENTRICITY":"0.00011250","SITE":"AFETR","PERIAPSIS":"538.937","ELEMENT_SET_NO":"999","COUNTRY_CODE":"US","EPOCH":"2023-04-29T13:32:19.191264","DECAY_DATE":null},{"ELEMENT_SET_NO":"999","COUNTRY_CODE":"US","EPOCH":"2023-04-29T15:23:36.340512","DECAY_DATE":null,"LAUNCH_DATE":"2022-04-29","CENTER_NAME":"EARTH","MEAN_ELEMENT_THEORY":"SGP4","TLE_LINE2":"2 52349  53.2139 210.5249 0001021  82.1206 277.9902 15.08862158 58018","TIME_SYSTEM":"UTC","OBJECT_NAME":"STARLINK-3819","APOAPSIS":"540.384","SITE":"AFETR","PERIOD":"95.436","ECCENTRICITY":"0.00010210","PERIAPSIS":"538.971","MEAN_MOTION_DDOT":"0.0000000000000","REV_AT_EPOCH":"5801","MEAN_MOTION":"15.08862158","RA_OF_ASC_NODE":"210.5249","NORAD_CAT_ID":"52349","INCLINATION":"53.2139","GP_ID":"230939367","SEMIMAJOR_AXIS":"6917.813","OBJECT_TYPE":"PAYLOAD","FILE":"3896774","MEAN_MOTION_DOT":"0.00014082","REF_FRAME":"TEME","MEAN_ANOMALY":"277.9902","CLASSIFICATION_TYPE":"U","RCS_SIZE":"LARGE","BSTAR":"0.00090054000000","TLE_LINE1":"1 52349U 22045U   23119.64139283  .00014082  00000-0  90054-3 0  9994","ARG_OF_PERICENTER":"82.1206","EPHEMERIS_TYPE":"0","OBJECT_ID":"2022-045U"},{"SITE":"AFETR","PERIOD":"95.437","ECCENTRICITY":"0.00011080","PERIAPSIS":"538.955","LAUNCH_DATE":"2022-04-29","CENTER_NAME":"EARTH","MEAN_ELEMENT_THEORY":"SGP4","TLE_LINE2":"2 52350  53.2166 210.8896 0001108 112.0653 248.0457 15.08847962 58005","TIME_SYSTEM":"UTC","OBJECT_NAME":"STARLINK-3754","APOAPSIS":"540.488","EPOCH":"2023-04-29T13:27:01.514880","DECAY_DATE":null,"ELEMENT_SET_NO":"999","COUNTRY_CODE":"US","ARG_OF_PERICENTER":"112.0653","EPHEMERIS_TYPE":"0","OBJECT_ID":"2022-045V","RCS_SIZE":"LARGE","BSTAR":"0.00063207000000","TLE_LINE1":"1 52350U 22045V   23119.56043420  .00009788  00000-0  63207-3 0  9991","GP_ID":"230929770","SEMIMAJOR_AXIS":"6917.856","OBJECT_TYPE":"PAYLOAD","FILE":"3896517","REF_FRAME":"TEME","MEAN_MOTION_DOT":"0.00009788","MEAN_ANOMALY":"248.0457","CLASSIFICATION_TYPE":"U","MEAN_MOTION_DDOT":"0.0000000000000","REV_AT_EPOCH":"5800","MEAN_MOTION":"15.08847962","RA_OF_ASC_NODE":"210.8896","NORAD_CAT_ID":"52350","INCLINATION":"53.2166"},{"ARG_OF_PERICENTER":"97.6527","OBJECT_ID":"2022-045X","EPHEMERIS_TYPE":"0","RCS_SIZE":"LARGE","BSTAR":"-0.00002807500000","TLE_LINE1":"1 52352U 22045X   23119.48315638 -.00000734  00000-0 -28075-4 0  9996","GP_ID":"230929520","SEMIMAJOR_AXIS":"6917.892","OBJECT_TYPE":"PAYLOAD","FILE":"3896517","MEAN_MOTION_DOT":"-0.00000734","REF_FRAME":"TEME","MEAN_ANOMALY":"262.4582","CLASSIFICATION_TYPE":"U","MEAN_MOTION_DDOT":"0.0000000000000","REV_AT_EPOCH":"5799","RA_OF_ASC_NODE":"211.2333","MEAN_MOTION":"15.08836106","NORAD_CAT_ID":"52352","INCLINATION":"53.2165","SITE":"AFETR","PERIOD":"95.438","ECCENTRICITY":"0.00010270","PERIAPSIS":"539.047","LAUNCH_DATE":"2022-04-29","CENTER_NAME":"EARTH","MEAN_ELEMENT_THEORY":"SGP4","TIME_SYSTEM":"UTC","TLE_LINE2":"2 52352  53.2165 211.2333 0001027  97.6527 262.4582 15.08836106 57999","APOAPSIS":"540.468","OBJECT_NAME":"STARLINK-3838","EPOCH":"2023-04-29T11:35:44.711232","DECAY_DATE":null,"ELEMENT_SET_NO":"999","COUNTRY_CODE":"US"},{"COUNTRY_CODE":"US","ELEMENT_SET_NO":"999","DECAY_DATE":null,"EPOCH":"2023-04-29T16:32:29.541120","MEAN_ELEMENT_THEORY":"SGP4","APOAPSIS":"540.589","OBJECT_NAME":"STARLINK-3807","TLE_LINE2":"2 52353  53.2158 210.3098 0001293  94.6030 265.5110 15.08856514 58022","TIME_SYSTEM":"UTC","LAUNCH_DATE":"2022-04-29","CENTER_NAME":"EARTH","PERIAPSIS":"538.800","SITE":"AFETR","ECCENTRICITY":"0.00012930","PERIOD":"95.437","INCLINATION":"53.2158","NORAD_CAT_ID":"52353","REV_AT_EPOCH":"5802","MEAN_MOTION_DDOT":"0.0000000000000","MEAN_MOTION":"15.08856514","RA_OF_ASC_NODE":"210.3098","CLASSIFICATION_TYPE":"U","MEAN_ANOMALY":"265.5110","SEMIMAJOR_AXIS":"6917.830","GP_ID":"230939290","MEAN_MOTION_DOT":"0.00008549","REF_FRAME":"TEME","OBJECT_TYPE":"PAYLOAD","FILE":"3896764","TLE_LINE1":"1 52353U 22045Y   23119.68923080  .00008549  00000-0  55429-3 0  9997","BSTAR":"0.00055429000000","RCS_SIZE":"LARGE","OBJECT_ID":"2022-045Y","EPHEMERIS_TYPE":"0","ARG_OF_PERICENTER":"94.6030"}];
